#aV2014 11 28  0  0  0.00000000     288 DD+AD WGS84 FIT  NGA
## 1820 432000.00000000   300.00000000 56989 0.0000000000000
+   32     1  2  3  4  5  6  7  8  9 10 11 12 13 14 15 16 17
+         18 19 20 21 22 23 24 25 26 27 28 29 30 31 32  0  0
+          0  0  0  0  0  0  0  0  0  0  0  0  0  0  0  0  0
+          0  0  0  0  0  0  0  0  0  0  0  0  0  0  0  0  0
+          0  0  0  0  0  0  0  0  0  0  0  0  0  0  0  0  0
++         2  2  2  2  2  2  2  2  2  2  2  2  2  2  2  2  2
++         2  2  2  2  2  2  2  2  2  2  2  2  2  2  2  0  0
++         0  0  0  0  0  0  0  0  0  0  0  0  0  0  0  0  0
++         0  0  0  0  0  0  0  0  0  0  0  0  0  0  0  0  0
++         0  0  0  0  0  0  0  0  0  0  0  0  0  0  0  0  0
%c cc cc ccc ccc cccc cccc cccc cccc ccccc ccccc ccccc ccccc
%c cc cc ccc ccc cccc cccc cccc cccc ccccc ccccc ccccc ccccc
%f  0.0000000  0.000000000  0.00000000000  0.000000000000000
%f  0.0000000  0.000000000  0.00000000000  0.000000000000000
%i    0    0    0    0      0      0      0      0         0
%i    0    0    0    0      0      0      0      0         0
/*      NGA, ST. LOUIS,MO.                                  
/*   EPHEMERIS COMPUTED FROM  1 DAYS OF DATA                
/*   EPOCHA SMOOTHER                                       
/* CCCCCCCCCCCCCCCCCCCCCCCCCCCCCCCCCCCCCCCCCCCCCCCCCCCCCCCCC
*  2014 11 28  9 50  0.00000000
P  1  13364.683506 -19252.608790  12290.445108    -11.675367                    
V  1  -1236.218016  15889.462560  26280.180717      0.003770                    
P  2 -14666.434839  -5490.743778 -21158.844108    532.698443                    
V  2   5565.300295 -27107.345679   2653.134547      0.022133                    
P  3  24391.807572    702.800684  11186.210747     28.695251                    
V  3 -12642.735461   6167.673656  27147.918387      0.360799                    
P  4  16023.572996  -8964.581877  18789.648403     -3.710255                    
V  4  -3425.107762  24506.769929  14638.347687     -0.004966                    
P  5 -24945.853415    704.644332  -9398.893193   -312.694781                    
V  5  10459.045929  -6192.569058 -28202.119803      0.045787                    
P  6  -8033.125991 -18660.961513 -17131.947019     17.265910                    
V  6   6489.916436 -20797.436685  19609.663876      0.063275                    
P  7   6948.625811 -25420.669429   -629.547137    417.043325                    
V  7   2462.494001   1584.703424 -32222.568886      0.036715                    
P  8  16154.743828 -10570.167778 -17707.352830     16.493951                    
V  8  -6643.558461  22173.126588 -19686.420426      0.000476                    
P  9    210.659314 -18239.437682 -19303.653185    -15.180787                    
V  9  18901.584124  15671.702103 -14611.509556     -0.082382                    
P 10 -12600.433672 -11913.068793 -20589.877521   -151.789645                    
V 10  24021.787339  -7942.338334  -9864.595080     -0.016244                    
P 11  13155.029915 -13693.226862  17995.748715   -539.631973                    
V 11   5081.452480  23847.307194  14187.288455     -0.027961                    
P 12 -23596.713862  10299.179003  -6133.198593    249.548037                    
V 12  -7967.727191     -4.120698  31235.990179      0.028202                    
P 13 -17405.624414 -19966.129264    183.257254    -64.646338                    
V 13   1586.131459  -1917.688879 -32189.131868     -0.036136                    
P 14  13962.078365  21780.417257   6574.743882    111.490372                    
V 14  -7118.098695  -4321.670069  30372.653712     -0.036006                    
P 15 -16554.068542   5338.006236  20081.184343   -217.179655                    
V 15 -18804.826221 -17504.549718 -10494.302841     -0.022273                    
P 16  24989.824336    467.662601  -9566.531627   -177.385299                    
V 16 -11255.868623   4170.008679 -29020.853729      0.028969                    
P 17 -13464.129009 -21639.323793   8161.401979   -140.422058                    
V 17   8442.472598   5601.157687  29560.276019     -0.023796                    
P 18  -3606.678786  17221.198356  20288.612634    361.382491                    
V 18 -24166.687458   6368.584453 -10250.707733      0.026294                    
P 19  18884.752684   1973.395960  18584.882143   -490.097928                    
V 19  14936.528116  18532.625890 -16552.097615     -0.016899                    
P 20  18915.844922 -15571.672523 -10370.398182    261.487859                    
V 20  13334.959900  -1441.133316  27084.482346      0.041433                    
P 21  -1386.013472  25835.752348   5578.850539   -397.279267                    
V 21  -5110.900197   5412.936019 -30303.908314     -0.020867                    
P 22  10636.580050  13085.438378  20762.644271    291.451789                    
V 22 -24512.991320   8714.617719   6970.728092      0.038111                    
P 23  10862.139970 -10895.344359 -21523.097886    -70.568815                    
V 23  20226.455413  18889.148858    222.631187     -0.027852                    
P 24 -14369.978530  16526.752054  14924.159542    -39.192887                    
V 24   1810.542575 -19092.266721  22978.843112     -0.006673                    
P 25 -13591.789934  15799.926334 -16459.175074     12.125915                    
V 25 -20317.956725   4595.752210  21427.480187     -0.018950                    
P 26 -20568.371723  -9649.082047  13322.584354   -138.340540                    
V 26 -10383.284499 -14699.286415 -25159.681584     -0.131392                    
P 27  22038.377649  10076.503081  10947.749703     33.145983                    
V 27   8659.866438  11088.692053 -27531.371465      0.027737                    
P 28  -4742.787367 -14176.407222  22580.478706    401.512318                    
V 28  26366.858638  -6201.316155   1576.498329      0.026628                    
P 29  -3026.105783  16826.779997 -20306.203574    576.101063                    
V 29 -18595.938053 -17918.503326 -12025.259726      0.023877                    
P 30    -27.151833 -24426.544213  10372.654767    -82.688454                    
V 30   6418.710853 -11815.232167 -27859.132459     -0.018591                    
P 31   8684.879830  16481.259734 -18648.075217    328.321912                    
V 31  -7510.596444  22914.359531  16934.930148     -0.006230                    
P 32  25837.631683  -4362.805303   1703.057106   -283.462385                    
V 32  -1350.649661   4101.394375  31710.773765      0.089264                    
EOF
